OBJECT_NAME,OBJECT_ID,EPOCH,MEAN_MOTION,ECCENTRICITY,INCLINATION,RA_OF_ASC_NODE,ARG_OF_PERICENTER,MEAN_ANOMALY,EPHEMERIS_TYPE,CLASSIFICATION_TYPE,NORAD_CAT_ID,ELEMENT_SET_NO,REV_AT_EPOCH,BSTAR,MEAN_MOTION_DOT,MEAN_MOTION_DDOT
SL-8 R/B,1985-006B,2026-06-04T05:19:09.898176,14.37828874,.00184141,74.0449,101.9222,351.5280,112.1746,0,U,15483,999,16646,.11558949E-3,.323E-5,0
SL-12 R/B(2),1985-042D,2026-06-03T15:55:20.979264,14.22003233,.0035522,71.1086,266.0874,348.3603,110.8497,0,U,15772,999,12661,.70829E-4,.11E-5,0
SL-14 R/B,1985-069B,2026-06-03T21:48:10.826496,14.86504675,.00172302,82.5262,303.8553,266.4790,93.4456,0,U,15945,999,18564,.5161666E-4,.482E-5,0
SL-16 R/B,1985-097B,2026-06-04T16:52:02.409888,14.16611618,.00058415,71.0036,317.3620,136.4219,305.9338,0,U,16182,999,9955,.91304711E-4,.134E-5,0
SL-14 R/B,1986-006B,2026-06-04T03:08:56.315904,14.86932225,.00759784,82.5264,178.3997,347.2925,12.6373,0,U,16496,999,16205,.69207819E-4,.678E-5,0
COSMOS 1743,1986-034A,2026-06-03T23:40:27.048288,15.65721268,.00035159,82.5276,342.7560,335.3214,24.7877,0,U,16719,999,19372,.45835709E-3,.46451E-3,0
SL-14 R/B,1986-046B,2026-06-04T02:04:51.538368,14.85662252,.0021808,82.4818,358.5557,304.6785,55.2376,0,U,16792,999,13923,.47586E-4,.438E-5,0
SL-14 R/B,1986-055B,2026-06-04T18:04:11.320320,14.85714245,.00200321,82.5213,44.8229,47.3468,13.7686,0,U,16882,999,13229,.54291563E-4,.497E-5,0
AJISAI (EGS),1986-061A,2026-06-04T22:19:01.988832,12.44516755,.00112801,50.0064,185.0874,149.5369,284.6393,0,U,16908,999,47886,.40868866E-4,-.92E-6,0
SL-14 R/B,1987-024B,2026-06-04T16:40:21.622944,14.86204937,.0017567,82.5286,10.9938,337.2574,22.7862,0,U,17567,999,10105,.47354812E-4,.441E-5,0
COSMOS 1833,1987-027A,2026-06-04T05:23:18.477888,14.13040466,.00225019,70.9147,144.1160,76.7560,283.6069,0,U,17589,999,2254,.16347256E-3,.258E-5,0
SL-16 R/B,1987-027B,2026-06-04T05:29:14.266176,14.17169977,.00058499,71.0024,94.1349,327.8198,32.2568,0,U,17590,999,2760,.12097956E-3,.196E-5,0
SL-14 R/B,1987-038B,2026-06-04T16:00:26.543232,14.85437745,.00179578,82.5018,214.8649,234.3510,125.6034,0,U,17912,999,9214,.45727452E-4,.419E-5,0
COSMOS 1844,1987-041A,2026-06-04T05:41:34.805760,14.14570107,.00332894,70.8992,211.6221,254.1046,105.6406,0,U,17973,999,1582,.3205931E-5,-.42E-6,0
SL-14 R/B,1987-055B,2026-06-03T06:45:41.878944,14.85700189,.00221821,82.4994,268.3368,90.7225,269.6533,0,U,18153,999,8264,.57772618E-4,.528E-5,0
COSMOS 1867,1987-060A,2026-06-04T03:20:17.166048,14.31514326,.00162004,65.0113,64.6001,281.9584,77.9684,0,U,18187,999,3231,.26129392E-4,-.31E-6,0
SL-14 R/B,1988-001B,2026-06-03T06:47:12.494400,14.85598562,.00169705,82.5122,114.8544,319.4199,40.5751,0,U,18749,999,5473,.57507607E-4,.522E-5,0
COSMOS 1933,1988-020A,2026-06-04T02:57:30.794976,15.18626787,.0002255,82.5113,165.3713,246.5845,113.5152,0,U,18958,999,6334,.18103315E-3,.3776E-4,0
SL-3 R/B,1988-032B,2026-06-04T19:22:45.978240,15.20742471,.00237795,97.5253,138.8621,291.6060,68.2642,0,U,19046,999,6534,.2212324E-3,.4833E-4,0
SL-16 R/B,1988-039B,2026-06-04T15:34:38.451360,14.19628078,.00229478,71.0151,244.6694,211.5710,148.4040,0,U,19120,999,97072,.77223989E-4,.115E-5,0
COSMOS 1953,1988-050A,2026-06-04T17:20:11.275872,15.29797469,.00110831,82.5084,70.6010,165.7673,194.3882,0,U,19210,999,5108,.28731049E-3,.8337E-4,0
SL-8 R/B,1988-053B,2026-06-03T14:08:33.906048,14.38961756,.00193388,74.0476,314.1234,114.4979,314.5681,0,U,19257,999,98895,.10792196E-3,.307E-5,0
COSMOS 1975,1988-093A,2026-06-04T17:19:32.957472,15.29159887,.00101139,82.5197,30.2392,216.5991,143.4559,0,U,19573,999,3270,.30284775E-3,.8614E-4,0
SL-14 R/B,1988-093B,2026-06-04T01:52:16.548384,14.85731101,.00221038,82.5303,320.9536,110.8783,339.8809,0,U,19574,999,1384,.55138359E-4,.505E-5,0
SL-16 R/B,1988-102B,2026-06-04T17:09:25.356384,14.16166247,.00161955,71.0003,328.3828,241.9743,117.9743,0,U,19650,999,93921,.7664877E-4,.104E-5,0
INTERCOSMOS 24,1989-080A,2026-06-04T16:56:11.249664,12.59641589,.11882979,82.6076,47.7647,90.8415,282.8696,0,U,20261,999,67775,.28573838E-3,.1002E-4,0
SL-14 R/B,1989-080C,2026-06-03T07:45:05.572224,12.50560014,.12295748,82.5912,118.2136,349.1174,8.5361,0,U,20262,999,67085,.16948173E-3,.57E-5,0
DELTA 1 R/B,1989-089B,2026-06-04T02:44:41.008128,14.50722446,.00681394,97.0639,348.7641,208.3686,151.3796,0,U,20323,999,90826,.11276986E-3,.421E-5,0
ARIANE 40 R/B,1990-005H,2026-06-04T17:53:08.621952,14.39920793,.0008969,98.2964,213.7475,307.0894,52.9475,0,U,20443,999,90533,.1120296E-3,.31E-5,0
DELTA 2 R/B(1),1990-008B,2026-06-03T21:09:49.591008,15.66729269,.0068452,35.6007,324.5326,348.4901,11.4272,0,U,20453,999,93961,.65995E-3,.82628E-3,0
